ONEWEB-0249             
1 48967U 21060A   25346.25157281  .00000026  00000+0  33393-4 0  9996
2 48967  87.9038 266.0017 0001796  72.0856 288.0470 13.16595614215013
ONEWEB-0250             
1 48968U 21060B   25346.29756518  .00000072  00000+0  13380-3 0  9993
2 48968  87.9042 264.3594 0001351  36.5982 323.5246 13.25820440215454
ONEWEB-0252             
1 48970U 21060D   25346.28323341  .00000055  00000+0  11006-3 0  9993
2 48970  87.9045 265.9882 0001904  78.9836 281.1509 13.16593377215063
ONEWEB-0253             
1 48971U 21060E   25346.27214441  .00000012  00000+0 -16878-5 0  9991
2 48971  87.9049 265.9948 0001897  70.7009 289.4327 13.16596646214996
ONEWEB-0254             
1 48972U 21060F   25346.28163900  .00000014  00000+0  39554-5 0  9993
2 48972  87.9052 265.9847 0001909  64.1055 296.0273 13.16597349214996
ONEWEB-0255             
1 48973U 21060G   25346.24364391  .00000128  00000+0  30114-3 0  9994
2 48973  87.9042 266.0079 0001886  64.8706 295.2620 13.16595674215064
ONEWEB-0256             
1 48974U 21060H   25346.26978852  .00000009  00000+0 -10050-4 0  9997
2 48974  87.9036 266.0112 0001685  77.5926 282.5393 13.16594945215031
ONEWEB-0257             
1 48975U 21060J   25346.22623738  .00000115  00000+0  26632-3 0  9993
2 48975  87.9048 265.9985 0001889  71.7873 288.3463 13.16595871214988
